SL-8 R/B                
1 19257U 88053B   26070.54287740  .00000284  00000+0  10069-3 0  9992
2 19257  74.0458 109.0502 0021452 288.0700 180.7333 14.38916992976863
COSMOS 1975             
1 19573U 88093A   26070.55835350  .00007165  00000+0  25983-3 0  9990
2 19573  82.5183 115.8093 0012329 157.1148 203.0644 15.28099507 19695
SL-14 R/B               
1 19574U 88093B   26070.88451243  .00000678  00000+0  75148-4 0  9993
2 19574  82.5308  39.9831 0021617  34.5935  24.6492 14.85659398  1346
SL-16 R/B               
1 19650U 88102B   26070.60016747  .00000300  00000+0  17578-3 0  9999
2 19650  71.0000 147.4780 0014095 358.6762   1.4322 14.16153368927163
INTERCOSMOS 24          
1 20261U 89080A   26070.54999009  .00000834  00000+0  24845-3 0  9996
2 20261  82.6023 103.1927 1186686 288.4983  59.0908 12.59561035667035
SL-14 R/B               
1 20262U 89080C   26070.79638739  .00000647  00000+0  18976-3 0  9994
2 20262  82.5975 171.8343 1230635 179.9360 180.2135 12.50496627660411
DELTA 1 R/B             
1 20323U 89089B   26070.55216418  .00000396  00000+0  10635-3 0  9996
2 20323  97.0705 277.6947 0070547 116.1978 244.6496 14.50664655896008
ARIANE 40 R/B           
1 20443U 90005H   26070.75928096  .00000305  00000+0  11038-3 0  9991
2 20443  98.3079 131.3590 0009979 192.2463 167.8485 14.39871979893102
DELTA 2 R/B(1)          
1 20453U 90008B   26070.62007573  .00069140  00000+0  80101-3 0  9998
2 20453  35.6032 162.1818 0084813 276.5076  82.6010 15.56257275926435
COSMOS 2058             
1 20465U 90010A   26070.83302541  .00004543  00000+0  26764-3 0  9991
2 20465  82.4670  45.3159 0009025 337.5023  22.5810 15.11343082942564
SL-14 R/B               
1 20466U 90010B   26070.77774035  .00000493  00000+0  56927-4 0  9991
2 20466  82.4987 265.4268 0018444 294.9528  64.9770 14.83570782928794
SL-14 R/B               
1 20511U 90018B   26070.86510415  .00000590  00000+0  70923-4 0  9990
2 20511  82.5207 221.0560 0017654  85.4792 274.8438 14.82147386922901
HST                     
1 20580U 90037B   26070.24775401  .00008856  00000+0  29286-3 0  9995
2 20580  28.4722  29.3700 0001841 140.8013 219.2716 15.29511346773556
SL-16 R/B               
1 20625U 90046B   26070.81794512 -.00000189  00000+0 -72637-4 0  9994
2 20625  70.9983 293.4449 0016215 296.7590  63.1873 14.15011690848692
COSMOS 2084             
1 20663U 90055A   26070.84721244  .00002574  00000+0  19077-3 0  9997
2 20663  62.7919 328.2199 0016759 190.6010 169.4740 15.05665442936649
SL-6 R/B(2)             
1 20666U 90055D   26070.83280553  .00002334  00000+0  18335-3 0  9992
2 20666  62.7825 246.5622 0025148 347.5462  12.5013 15.03605998938514
SL-8 R/B                
1 20775U 90078B   26070.86021967  .00016400  00000+0  48311-3 0  9999
2 20775  82.9006 249.3584 0361763   6.6999 353.8864 14.89141367809624
